[
  {
    "OBJECT_NAME": "TIANMU-1 11",
    "OBJECT_ID": "2023-205A",
    "EPOCH": "2025-06-28T19:50:26.156832",
    "MEAN_MOTION": 15.22255009,
    "ECCENTRICITY": 0.0010577,
    "INCLINATION": 97.371,
    "RA_OF_ASC_NODE": 202.5296,
    "ARG_OF_PERICENTER": 159.7745,
    "MEAN_ANOMALY": 200.3912,
    "EPHEMERIS_TYPE": 0,
    "CLASSIFICATION_TYPE": "U",
    "NORAD_CAT_ID": 58645,
    "ELEMENT_SET_NO": 999,
    "REV_AT_EPOCH": 8368,
    "BSTAR": 0.00014882,
    "MEAN_MOTION_DOT": 3.358e-05,
    "MEAN_MOTION_DDOT": 0
  },
  {
    "OBJECT_NAME": "TIANMU-1 12",
    "OBJECT_ID": "2023-205B",
    "EPOCH": "2025-06-28T20:15:30.823200",
    "MEAN_MOTION": 15.22198199,
    "ECCENTRICITY": 0.0009,
    "INCLINATION": 97.3696,
    "RA_OF_ASC_NODE": 202.4026,
    "ARG_OF_PERICENTER": 147.1738,
    "MEAN_ANOMALY": 213.0059,
    "EPHEMERIS_TYPE": 0,
    "CLASSIFICATION_TYPE": "U",
    "NORAD_CAT_ID": 58646,
    "ELEMENT_SET_NO": 999,
    "REV_AT_EPOCH": 8367,
    "BSTAR": 0.00014591,
    "MEAN_MOTION_DOT": 3.284e-05,
    "MEAN_MOTION_DDOT": 0
  },
  {
    "OBJECT_NAME": "TIANMU-1 13",
    "OBJECT_ID": "2023-205C",
    "EPOCH": "2025-06-28T21:03:07.609824",
    "MEAN_MOTION": 15.22172939,
    "ECCENTRICITY": 0.0009598,
    "INCLINATION": 97.3725,
    "RA_OF_ASC_NODE": 202.574,
    "ARG_OF_PERICENTER": 129.2777,
    "MEAN_ANOMALY": 230.9312,
    "EPHEMERIS_TYPE": 0,
    "CLASSIFICATION_TYPE": "U",
    "NORAD_CAT_ID": 58647,
    "ELEMENT_SET_NO": 999,
    "REV_AT_EPOCH": 8367,
    "BSTAR": 0.00016436,
    "MEAN_MOTION_DOT": 3.706e-05,
    "MEAN_MOTION_DDOT": 0
  },
  {
    "OBJECT_NAME": "TIANMU-1 14",
    "OBJECT_ID": "2023-205D",
    "EPOCH": "2025-06-28T20:38:40.801344",
    "MEAN_MOTION": 15.2219265,
    "ECCENTRICITY": 0.0010505,
    "INCLINATION": 97.3653,
    "RA_OF_ASC_NODE": 202.0608,
    "ARG_OF_PERICENTER": 134.487,
    "MEAN_ANOMALY": 225.7227,
    "EPHEMERIS_TYPE": 0,
    "CLASSIFICATION_TYPE": "U",
    "NORAD_CAT_ID": 58648,
    "ELEMENT_SET_NO": 999,
    "REV_AT_EPOCH": 8367,
    "BSTAR": 0.00015565,
    "MEAN_MOTION_DOT": 3.509e-05,
    "MEAN_MOTION_DDOT": 0
  },
  {
    "OBJECT_NAME": "TIANMU-1 19",
    "OBJECT_ID": "2023-208A",
    "EPOCH": "2025-06-28T20:13:55.561152",
    "MEAN_MOTION": 15.24354688,
    "ECCENTRICITY": 0.000719,
    "INCLINATION": 97.4299,
    "RA_OF_ASC_NODE": 291.8488,
    "ARG_OF_PERICENTER": 120.7154,
    "MEAN_ANOMALY": 239.4792,
    "EPHEMERIS_TYPE": 0,
    "CLASSIFICATION_TYPE": "U",
    "NORAD_CAT_ID": 58660,
    "ELEMENT_SET_NO": 999,
    "REV_AT_EPOCH": 8337,
    "BSTAR": 0.00018982,
    "MEAN_MOTION_DOT": 4.577e-05,
    "MEAN_MOTION_DDOT": 0
  },
  {
    "OBJECT_NAME": "TIANMU-1 20",
    "OBJECT_ID": "2023-208B",
    "EPOCH": "2025-06-28T19:54:24.251904",
    "MEAN_MOTION": 15.25556537,
    "ECCENTRICITY": 0.0009486,
    "INCLINATION": 97.4235,
    "RA_OF_ASC_NODE": 292.1194,
    "ARG_OF_PERICENTER": 130.7785,
    "MEAN_ANOMALY": 229.4278,
    "EPHEMERIS_TYPE": 0,
    "CLASSIFICATION_TYPE": "U",
    "NORAD_CAT_ID": 58661,
    "ELEMENT_SET_NO": 999,
    "REV_AT_EPOCH": 8342,
    "BSTAR": 0.00018316,
    "MEAN_MOTION_DOT": 4.579e-05,
    "MEAN_MOTION_DDOT": 0
  },
  {
    "OBJECT_NAME": "TIANMU-1 21",
    "OBJECT_ID": "2023-208C",
    "EPOCH": "2025-06-28T19:19:27.852672",
    "MEAN_MOTION": 15.275144,
    "ECCENTRICITY": 0.0009122,
    "INCLINATION": 97.428,
    "RA_OF_ASC_NODE": 293.347,
    "ARG_OF_PERICENTER": 128.5199,
    "MEAN_ANOMALY": 231.6859,
    "EPHEMERIS_TYPE": 0,
    "CLASSIFICATION_TYPE": "U",
    "NORAD_CAT_ID": 58662,
    "ELEMENT_SET_NO": 999,
    "REV_AT_EPOCH": 8348,
    "BSTAR": 0.00020229,
    "MEAN_MOTION_DOT": 5.376e-05,
    "MEAN_MOTION_DDOT": 0
  },
  {
    "OBJECT_NAME": "TIANMU-1 22",
    "OBJECT_ID": "2023-208D",
    "EPOCH": "2025-06-28T19:55:05.745504",
    "MEAN_MOTION": 15.2432623,
    "ECCENTRICITY": 0.0005421,
    "INCLINATION": 97.4294,
    "RA_OF_ASC_NODE": 291.9368,
    "ARG_OF_PERICENTER": 137.3253,
    "MEAN_ANOMALY": 222.8406,
    "EPHEMERIS_TYPE": 0,
    "CLASSIFICATION_TYPE": "U",
    "NORAD_CAT_ID": 58663,
    "ELEMENT_SET_NO": 999,
    "REV_AT_EPOCH": 8338,
    "BSTAR": 0.00017448,
    "MEAN_MOTION_DOT": 4.196e-05,
    "MEAN_MOTION_DDOT": 0
  },
  {
    "OBJECT_NAME": "TIANMU-1 15",
    "OBJECT_ID": "2024-004A",
    "EPOCH": "2025-06-28T14:18:28.871136",
    "MEAN_MOTION": 15.22083905,
    "ECCENTRICITY": 0.0007646,
    "INCLINATION": 97.4655,
    "RA_OF_ASC_NODE": 1.9904,
    "ARG_OF_PERICENTER": 146.7413,
    "MEAN_ANOMALY": 213.4305,
    "EPHEMERIS_TYPE": 0,
    "CLASSIFICATION_TYPE": "U",
    "NORAD_CAT_ID": 58700,
    "ELEMENT_SET_NO": 999,
    "REV_AT_EPOCH": 8190,
    "BSTAR": 0.00016299,
    "MEAN_MOTION_DOT": 3.662e-05,
    "MEAN_MOTION_DDOT": 0
  },
  {
    "OBJECT_NAME": "TIANMU-1 16",
    "OBJECT_ID": "2024-004B",
    "EPOCH": "2025-06-28T20:14:08.151360",
    "MEAN_MOTION": 15.22126003,
    "ECCENTRICITY": 0.0007879,
    "INCLINATION": 97.459,
    "RA_OF_ASC_NODE": 1.7663,
    "ARG_OF_PERICENTER": 151.2796,
    "MEAN_ANOMALY": 208.8876,
    "EPHEMERIS_TYPE": 0,
    "CLASSIFICATION_TYPE": "U",
    "NORAD_CAT_ID": 58701,
    "ELEMENT_SET_NO": 999,
    "REV_AT_EPOCH": 8194,
    "BSTAR": 0.00016557,
    "MEAN_MOTION_DOT": 3.726e-05,
    "MEAN_MOTION_DDOT": 0
  },
  {
    "OBJECT_NAME": "TIANMU-1 17",
    "OBJECT_ID": "2024-004C",
    "EPOCH": "2025-06-28T19:51:44.646048",
    "MEAN_MOTION": 15.22287257,
    "ECCENTRICITY": 0.0006509,
    "INCLINATION": 97.4627,
    "RA_OF_ASC_NODE": 2.0825,
    "ARG_OF_PERICENTER": 150.0873,
    "MEAN_ANOMALY": 210.0736,
    "EPHEMERIS_TYPE": 0,
    "CLASSIFICATION_TYPE": "U",
    "NORAD_CAT_ID": 58702,
    "ELEMENT_SET_NO": 999,
    "REV_AT_EPOCH": 8193,
    "BSTAR": 0.00015428,
    "MEAN_MOTION_DOT": 3.483e-05,
    "MEAN_MOTION_DDOT": 0
  },
  {
    "OBJECT_NAME": "TIANMU-1 18",
    "OBJECT_ID": "2024-004D",
    "EPOCH": "2025-06-28T19:27:46.442880",
    "MEAN_MOTION": 15.22190376,
    "ECCENTRICITY": 0.0006586,
    "INCLINATION": 97.4646,
    "RA_OF_ASC_NODE": 2.2222,
    "ARG_OF_PERICENTER": 139.5915,
    "MEAN_ANOMALY": 220.5812,
    "EPHEMERIS_TYPE": 0,
    "CLASSIFICATION_TYPE": "U",
    "NORAD_CAT_ID": 58703,
    "ELEMENT_SET_NO": 999,
    "REV_AT_EPOCH": 8193,
    "BSTAR": 0.00015079,
    "MEAN_MOTION_DOT": 3.393e-05,
    "MEAN_MOTION_DDOT": 0
  },
  {
    "OBJECT_NAME": "INSAT-3DS",
    "OBJECT_ID": "2024-033A",
    "EPOCH": "2025-06-28T13:51:51.827616",
    "MEAN_MOTION": 1.00270727,
    "ECCENTRICITY": 9.78e-05,
    "INCLINATION": 0.0669,
    "RA_OF_ASC_NODE": 94.3416,
    "ARG_OF_PERICENTER": 1.4105,
    "MEAN_ANOMALY": 111.1794,
    "EPHEMERIS_TYPE": 0,
    "CLASSIFICATION_TYPE": "U",
    "NORAD_CAT_ID": 58990,
    "ELEMENT_SET_NO": 999,
    "REV_AT_EPOCH": 4352,
    "BSTAR": 0,
    "MEAN_MOTION_DOT": -1.61e-06,
    "MEAN_MOTION_DDOT": 0
  },
  {
    "OBJECT_NAME": "METEOR-M2 4",
    "OBJECT_ID": "2024-039A",
    "EPOCH": "2025-06-28T20:21:44.050464",
    "MEAN_MOTION": 14.22369707,
    "ECCENTRICITY": 0.0008145,
    "INCLINATION": 98.6501,
    "RA_OF_ASC_NODE": 139.6288,
    "ARG_OF_PERICENTER": 109.3935,
    "MEAN_ANOMALY": 250.8124,
    "EPHEMERIS_TYPE": 0,
    "CLASSIFICATION_TYPE": "U",
    "NORAD_CAT_ID": 59051,
    "ELEMENT_SET_NO": 999,
    "REV_AT_EPOCH": 6903,
    "BSTAR": 1.9744e-05,
    "MEAN_MOTION_DOT": 1e-08,
    "MEAN_MOTION_DDOT": 0
  },
  {
    "OBJECT_NAME": "GOES 19",
    "OBJECT_ID": "2024-119A",
    "EPOCH": "2025-06-28T20:09:11.937600",
    "MEAN_MOTION": 1.00270106,
    "ECCENTRICITY": 3.02e-05,
    "INCLINATION": 0.0326,
    "RA_OF_ASC_NODE": 143.5319,
    "ARG_OF_PERICENTER": 71.6448,
    "MEAN_ANOMALY": 289.0759,
    "EPHEMERIS_TYPE": 0,
    "CLASSIFICATION_TYPE": "U",
    "NORAD_CAT_ID": 60133,
    "ELEMENT_SET_NO": 999,
    "REV_AT_EPOCH": 376,
    "BSTAR": 0,
    "MEAN_MOTION_DOT": -2.53e-06,
    "MEAN_MOTION_DDOT": 0
  }
]